{
  "type": "FeatureCollection",
  "features": [
    {
      "type": "Feature",
      "properties": {
        "norad_id": 58655,
        "name": "BEIDOU-3 M26 (C48)",
        "group": "beidou",
        "lat": 18.3576473034924,
        "lon": -124.87348023437313,
        "alt_km": 21528.245435121044,
        "timestamp": "2025-12-23T05:02:12.296433+00:00",
        "meta_object_name": "BEIDOU-3 M26 (C48)",
        "meta_object_id": "2023-207B",
        "meta_epoch": "2025-12-22T10:30:28.326240",
        "meta_mean_motion": 1.86231247,
        "meta_eccentricity": 0.00041599,
        "meta_inclination": 55.5947,
        "meta_ra_of_asc_node": 68.2593,
        "meta_arg_of_pericenter": 259.3765,
        "meta_mean_anomaly": 100.6271,
        "meta_ephemeris_type": 0,
        "meta_classification_type": "U",
        "meta_norad_cat_id": 58655,
        "meta_element_set_no": 999,
        "meta_rev_at_epoch": 1353,
        "meta_bstar": 0,
        "meta_mean_motion_dot": -3e-07,
        "meta_mean_motion_ddot": 0,
        "tle_line1": "1 58655U 23207B   25356.43782785 -.00000030  00000+0  00000+0 0  9990",
        "tle_line2": "2 58655  55.5947  68.2593 0004159 259.3765 100.6271  1.86231247 13538"
      },
      "geometry": {
        "type": "Point",
        "coordinates": [
          -124.87348023437313,
          18.3576473034924
        ]
      }
    },
    {
      "type": "Feature",
      "properties": {
        "norad_id": 61186,
        "name": "BEIDOU-3 M25 (C47)",
        "group": "beidou",
        "lat": -54.397838998960715,
        "lon": -133.94550271512887,
        "alt_km": 21520.201458002917,
        "timestamp": "2025-12-23T05:02:12.296444+00:00",
        "meta_object_name": "BEIDOU-3 M25 (C47)",
        "meta_object_id": "2024-168B",
        "meta_epoch": "2025-12-22T12:27:11.391840",
        "meta_mean_motion": 1.86230177,
        "meta_eccentricity": 0.0005446,
        "meta_inclination": 54.6334,
        "meta_ra_of_asc_node": 308.3821,
        "meta_arg_of_pericenter": 299.7491,
        "meta_mean_anomaly": 231.473,
        "meta_ephemeris_type": 0,
        "meta_classification_type": "U",
        "meta_norad_cat_id": 61186,
        "meta_element_set_no": 999,
        "meta_rev_at_epoch": 849,
        "meta_bstar": 0,
        "meta_mean_motion_dot": -5.7e-07,
        "meta_mean_motion_ddot": 0,
        "tle_line1": "1 61186U 24168B   25356.51888185 -.00000057  00000+0  00000+0 0  9999",
        "tle_line2": "2 61186  54.6334 308.3821 0005446 299.7491 231.4730  1.86230177  8490"
      },
      "geometry": {
        "type": "Point",
        "coordinates": [
          -133.94550271512887,
          -54.397838998960715
        ]
      }
    },
    {
      "type": "Feature",
      "properties": {
        "norad_id": 61187,
        "name": "BEIDOU-3 M27 (C49)",
        "group": "beidou",
        "lat": 38.30674107374446,
        "lon": -17.584069550373247,
        "alt_km": 21520.888260255022,
        "timestamp": "2025-12-23T05:02:12.296455+00:00",
        "meta_object_name": "BEIDOU-3 M27 (C49)",
        "meta_object_id": "2024-168C",
        "meta_epoch": "2025-12-22T20:59:38.843232",
        "meta_mean_motion": 1.8623031,
        "meta_eccentricity": 0.0002551,
        "meta_inclination": 54.6286,
        "meta_ra_of_asc_node": 308.3534,
        "meta_arg_of_pericenter": 340.6202,
        "meta_mean_anomaly": 204.1443,
        "meta_ephemeris_type": 0,
        "meta_classification_type": "U",
        "meta_norad_cat_id": 61187,
        "meta_element_set_no": 999,
        "meta_rev_at_epoch": 597,
        "meta_bstar": 0,
        "meta_mean_motion_dot": -5.6e-07,
        "meta_mean_motion_ddot": 0,
        "tle_line1": "1 61187U 24168C   25356.87475513 -.00000056  00000+0  00000+0 0  9995",
        "tle_line2": "2 61187  54.6286 308.3534 0002551 340.6202 204.1443  1.86230310  5975"
      },
      "geometry": {
        "type": "Point",
        "coordinates": [
          -17.584069550373247,
          38.30674107374446
        ]
      }
    }
  ]
}